[{"OBJECT_NAME":"O3B FM5","OBJECT_ID":"2013-031A","EPOCH":"2026-04-25T20:50:50.147808","MEAN_MOTION":5.00116472,"ECCENTRICITY":0.00031418,"INCLINATION":0.1023,"RA_OF_ASC_NODE":0.1408,"ARG_OF_PERICENTER":23.8377,"MEAN_ANOMALY":336.0345,"EPHEMERIS_TYPE":0,"CLASSIFICATION_TYPE":"U","NORAD_CAT_ID":39188,"ELEMENT_SET_NO":999,"REV_AT_EPOCH":23442,"BSTAR":0,"MEAN_MOTION_DOT":-2.7e-7,"MEAN_MOTION_DDOT":0},{"OBJECT_NAME":"O3B FM4","OBJECT_ID":"2013-031B","EPOCH":"2026-04-25T18:54:46.467648","MEAN_MOTION":5.00115143,"ECCENTRICITY":0.0005145,"INCLINATION":0.0495,"RA_OF_ASC_NODE":346.0223,"ARG_OF_PERICENTER":48.4423,"MEAN_ANOMALY":325.5669,"EPHEMERIS_TYPE":0,"CLASSIFICATION_TYPE":"U","NORAD_CAT_ID":39189,"ELEMENT_SET_NO":999,"REV_AT_EPOCH":23442,"BSTAR":0,"MEAN_MOTION_DOT":-2.7e-7,"MEAN_MOTION_DDOT":0},{"OBJECT_NAME":"O3B FM2","OBJECT_ID":"2013-031C","EPOCH":"2026-04-25T20:29:13.794432","MEAN_MOTION":5.00115975,"ECCENTRICITY":0.00027884,"INCLINATION":0.0473,"RA_OF_ASC_NODE":339.1574,"ARG_OF_PERICENTER":53.2159,"MEAN_ANOMALY":327.642,"EPHEMERIS_TYPE":0,"CLASSIFICATION_TYPE":"U","NORAD_CAT_ID":39190,"ELEMENT_SET_NO":999,"REV_AT_EPOCH":23449,"BSTAR":0,"MEAN_MOTION_DOT":-2.7e-7,"MEAN_MOTION_DDOT":0},{"OBJECT_NAME":"O3B PFM","OBJECT_ID":"2013-031D","EPOCH":"2026-04-23T11:15:27.446688","MEAN_MOTION":5.00115912,"ECCENTRICITY":0.0004841,"INCLINATION":0.07,"RA_OF_ASC_NODE":358.7224,"ARG_OF_PERICENTER":42.5713,"MEAN_ANOMALY":318.7416,"EPHEMERIS_TYPE":0,"CLASSIFICATION_TYPE":"U","NORAD_CAT_ID":39191,"ELEMENT_SET_NO":999,"REV_AT_EPOCH":23393,"BSTAR":0,"MEAN_MOTION_DOT":-2.6e-7,"MEAN_MOTION_DDOT":0},{"OBJECT_NAME":"O3B FM3","OBJECT_ID":"2014-038A","EPOCH":"2026-04-25T12:49:50.913120","MEAN_MOTION":5.00115585,"ECCENTRICITY":0.00013957,"INCLINATION":0.0515,"RA_OF_ASC_NODE":355.3021,"ARG_OF_PERICENTER":105.0225,"MEAN_ANOMALY":259.6893,"EPHEMERIS_TYPE":0,"CLASSIFICATION_TYPE":"U","NORAD_CAT_ID":40079,"ELEMENT_SET_NO":999,"REV_AT_EPOCH":21041,"BSTAR":0,"MEAN_MOTION_DOT":-2.7e-7,"MEAN_MOTION_DDOT":0},{"OBJECT_NAME":"O3B FM7","OBJECT_ID":"2014-038B","EPOCH":"2026-04-25T01:56:32.838432","MEAN_MOTION":5.00115615,"ECCENTRICITY":0.00042181,"INCLINATION":0.0544,"RA_OF_ASC_NODE":347.6471,"ARG_OF_PERICENTER":28.2337,"MEAN_ANOMALY":344.1306,"EPHEMERIS_TYPE":0,"CLASSIFICATION_TYPE":"U","NORAD_CAT_ID":40080,"ELEMENT_SET_NO":999,"REV_AT_EPOCH":21522,"BSTAR":0,"MEAN_MOTION_DOT":-2.7e-7,"MEAN_MOTION_DDOT":0},{"OBJECT_NAME":"O3B FM6","OBJECT_ID":"2014-038C","EPOCH":"2026-04-25T16:58:56.768736","MEAN_MOTION":5.00115683,"ECCENTRICITY":0.00026432,"INCLINATION":0.0521,"RA_OF_ASC_NODE":352.0239,"ARG_OF_PERICENTER":41.6225,"MEAN_ANOMALY":326.3686,"EPHEMERIS_TYPE":0,"CLASSIFICATION_TYPE":"U","NORAD_CAT_ID":40081,"ELEMENT_SET_NO":999,"REV_AT_EPOCH":21520,"BSTAR":0,"MEAN_MOTION_DOT":-2.7e-7,"MEAN_MOTION_DDOT":0},{"OBJECT_NAME":"O3B FM8","OBJECT_ID":"2014-038D","EPOCH":"2026-04-25T18:15:40.855392","MEAN_MOTION":5.00115961,"ECCENTRICITY":0.00027032,"INCLINATION":0.0525,"RA_OF_ASC_NODE":351.0147,"ARG_OF_PERICENTER":47.4699,"MEAN_ANOMALY":321.5329,"EPHEMERIS_TYPE":0,"CLASSIFICATION_TYPE":"U","NORAD_CAT_ID":40082,"ELEMENT_SET_NO":999,"REV_AT_EPOCH":21532,"BSTAR":0,"MEAN_MOTION_DOT":-2.7e-7,"MEAN_MOTION_DDOT":0},{"OBJECT_NAME":"O3B FM10","OBJECT_ID":"2014-083A","EPOCH":"2026-04-25T14:06:54.972000","MEAN_MOTION":5.00115287,"ECCENTRICITY":0.00026536,"INCLINATION":0.0389,"RA_OF_ASC_NODE":337.7556,"ARG_OF_PERICENTER":57.6099,"MEAN_ANOMALY":324.6504,"EPHEMERIS_TYPE":0,"CLASSIFICATION_TYPE":"U","NORAD_CAT_ID":40348,"ELEMENT_SET_NO":999,"REV_AT_EPOCH":20726,"BSTAR":0,"MEAN_MOTION_DOT":-2.7e-7,"MEAN_MOTION_DDOT":0},{"OBJECT_NAME":"O3B FM11","OBJECT_ID":"2014-083B","EPOCH":"2026-04-25T19:13:01.518528","MEAN_MOTION":5.00115551,"ECCENTRICITY":0.00029198,"INCLINATION":0.0578,"RA_OF_ASC_NODE":359.4196,"ARG_OF_PERICENTER":21.5522,"MEAN_ANOMALY":339.0384,"EPHEMERIS_TYPE":0,"CLASSIFICATION_TYPE":"U","NORAD_CAT_ID":40349,"ELEMENT_SET_NO":999,"REV_AT_EPOCH":20729,"BSTAR":0,"MEAN_MOTION_DOT":-2.7e-7,"MEAN_MOTION_DDOT":0},{"OBJECT_NAME":"O3B FM12","OBJECT_ID":"2014-083C","EPOCH":"2026-04-25T19:51:59.223456","MEAN_MOTION":5.0011593,"ECCENTRICITY":0.00025523,"INCLINATION":0.057,"RA_OF_ASC_NODE":359.0554,"ARG_OF_PERICENTER":32.1526,"MEAN_ANOMALY":328.8055,"EPHEMERIS_TYPE":0,"CLASSIFICATION_TYPE":"U","NORAD_CAT_ID":40350,"ELEMENT_SET_NO":999,"REV_AT_EPOCH":20730,"BSTAR":0,"MEAN_MOTION_DOT":-2.7e-7,"MEAN_MOTION_DDOT":0},{"OBJECT_NAME":"O3B FM9","OBJECT_ID":"2014-083D","EPOCH":"2026-04-25T15:42:46.962144","MEAN_MOTION":5.00115907,"ECCENTRICITY":0.00027079,"INCLINATION":0.059,"RA_OF_ASC_NODE":359.175,"ARG_OF_PERICENTER":34.7092,"MEAN_ANOMALY":326.1314,"EPHEMERIS_TYPE":0,"CLASSIFICATION_TYPE":"U","NORAD_CAT_ID":40351,"ELEMENT_SET_NO":999,"REV_AT_EPOCH":20744,"BSTAR":0,"MEAN_MOTION_DOT":-2.7e-7,"MEAN_MOTION_DDOT":0},{"OBJECT_NAME":"LEO 1 (LEO VANTAGE 1)","OBJECT_ID":"2018-004C","EPOCH":"2026-04-25T18:06:09.285696","MEAN_MOTION":14.67560438,"ECCENTRICITY":0.0350178,"INCLINATION":99.245,"RA_OF_ASC_NODE":27.2062,"ARG_OF_PERICENTER":240.3062,"MEAN_ANOMALY":116.2858,"EPHEMERIS_TYPE":0,"CLASSIFICATION_TYPE":"U","NORAD_CAT_ID":43113,"ELEMENT_SET_NO":999,"REV_AT_EPOCH":42979,"BSTAR":0.00012187155,"MEAN_MOTION_DOT":1.669e-5,"MEAN_MOTION_DDOT":0},{"OBJECT_NAME":"O3B FM15","OBJECT_ID":"2018-024A","EPOCH":"2026-04-25T17:18:57.033216","MEAN_MOTION":5.00115745,"ECCENTRICITY":0.00026395,"INCLINATION":0.051,"RA_OF_ASC_NODE":4.1856,"ARG_OF_PERICENTER":27.8727,"MEAN_ANOMALY":327.956,"EPHEMERIS_TYPE":0,"CLASSIFICATION_TYPE":"U","NORAD_CAT_ID":43231,"ELEMENT_SET_NO":999,"REV_AT_EPOCH":14840,"BSTAR":0,"MEAN_MOTION_DOT":-2.7e-7,"MEAN_MOTION_DDOT":0},{"OBJECT_NAME":"O3B FM16","OBJECT_ID":"2018-024B","EPOCH":"2026-04-25T18:34:20.416224","MEAN_MOTION":5.00115781,"ECCENTRICITY":0.00026859,"INCLINATION":0.0487,"RA_OF_ASC_NODE":8.2295,"ARG_OF_PERICENTER":22.4728,"MEAN_ANOMALY":329.3116,"EPHEMERIS_TYPE":0,"CLASSIFICATION_TYPE":"U","NORAD_CAT_ID":43232,"ELEMENT_SET_NO":999,"REV_AT_EPOCH":14832,"BSTAR":0,"MEAN_MOTION_DOT":-2.7e-7,"MEAN_MOTION_DDOT":0},{"OBJECT_NAME":"O3B FM14","OBJECT_ID":"2018-024C","EPOCH":"2026-04-25T00:21:41.548608","MEAN_MOTION":5.00115692,"ECCENTRICITY":0.00028613,"INCLINATION":0.0471,"RA_OF_ASC_NODE":8.1994,"ARG_OF_PERICENTER":26.7396,"MEAN_ANOMALY":325.0779,"EPHEMERIS_TYPE":0,"CLASSIFICATION_TYPE":"U","NORAD_CAT_ID":43233,"ELEMENT_SET_NO":999,"REV_AT_EPOCH":14829,"BSTAR":0,"MEAN_MOTION_DOT":-2.7e-7,"MEAN_MOTION_DDOT":0},{"OBJECT_NAME":"O3B FM13","OBJECT_ID":"2018-024D","EPOCH":"2026-04-25T01:56:31.995168","MEAN_MOTION":5.00115557,"ECCENTRICITY":0.00035963,"INCLINATION":0.0559,"RA_OF_ASC_NODE":329.1327,"ARG_OF_PERICENTER":20.8365,"MEAN_ANOMALY":10.0218,"EPHEMERIS_TYPE":0,"CLASSIFICATION_TYPE":"U","NORAD_CAT_ID":43234,"ELEMENT_SET_NO":999,"REV_AT_EPOCH":14840,"BSTAR":0,"MEAN_MOTION_DOT":-2.7e-7,"MEAN_MOTION_DDOT":0}]
